[{"OBJECT_NAME":"TIANMU-1 07","OBJECT_ID":"2023-101A","EPOCH":"2026-03-06T13:47:20.454720","MEAN_MOTION":15.29118809,"ECCENTRICITY":0.00046097,"INCLINATION":97.2728,"RA_OF_ASC_NODE":118.5929,"ARG_OF_PERICENTER":142.4105,"MEAN_ANOMALY":217.7458,"EPHEMERIS_TYPE":0,"CLASSIFICATION_TYPE":"U","NORAD_CAT_ID":57399,"ELEMENT_SET_NO":999,"REV_AT_EPOCH":14596,"BSTAR":0.00029794732,"MEAN_MOTION_DOT":8.352e-5,"MEAN_MOTION_DDOT":0},{"OBJECT_NAME":"STARLINK-35506","OBJECT_ID":"2025-253F","EPOCH":"2026-03-09T17:22:39.063072","MEAN_MOTION":15.27595327,"ECCENTRICITY":0.00026424,"INCLINATION":43.003,"RA_OF_ASC_NODE":211.9772,"ARG_OF_PERICENTER":271.1001,"MEAN_ANOMALY":88.9548,"EPHEMERIS_TYPE":0,"CLASSIFICATION_TYPE":"U","NORAD_CAT_ID":66324,"ELEMENT_SET_NO":999,"REV_AT_EPOCH":2025,"BSTAR":0.0011450516,"MEAN_MOTION_DOT":0.00031398,"MEAN_MOTION_DDOT":0}]
